#dP2024  2 19 18  0  0.00000000      96 __u+U IGS20 EXT  IAC
## 2302 151200.00000000   900.00000000 60359 0.7500000000000
+  118   C06C07C08C09C10C11C12C13C14C16C19C20C21C22C23C24C25
+        C26C27C28C29C30C32C33C34C35C36C37C38C39C40C41C42C43
+        C44C45C46E02E03E04E05E07E08E09E10E11E12E13E14E15E18
+        E19E21E24E25E26E27E30E31E33E34E36G01G02G03G04G05G06
+        G07G08G09G10G11G12G13G14G15G16G17G18G19G20G21G22G23
+        G24G25G26G27G28G29G30G31G32J02J03R01R02R03R04R05R07
+        R08R09R11R12R13R14R15R16R17R18R19R20R21R22R24R26  0
++        10  9 11 10  9  9  8 10  8  9  8  8  8 10  8  8  7
++         8  8  8 10  7  8  7  8 10  8 10 10 10  9  8  9  7
++         8  9 10  8  7  7  7  7  7  7  7  8  7  6  7  6  8
++         7  6  8  7  7  6  7  7  7  7  7  6  7  8 10  7  6
++         7  8  8  7  6  8  9  7  7  7  7  8  7  7  7  6  7
++         7  8  9  8  8  7  8  8  7  8  9  8  8  8  8  7  9
++         8  8  8  7  7  9  8  9  7  8 10 10  7  8  7  8  0
%c M  cc GPS ccc cccc cccc cccc cccc ccccc ccccc ccccc ccccc
%c cc cc ccc ccc cccc cccc cccc cccc ccccc ccccc ccccc ccccc
%f  0.0000000  0.000000000  0.00000000000  0.000000000000000
%f  0.0000000  0.000000000  0.00000000000  0.000000000000000
%i    0    0    0    0      0      0      0      0         0
%i    0    0    0    0      0      0      0      0         0
/* IAC                                ULTRA-RAPID PREDICTION
/* S/V CLOCKS ARE ALIGNED TO GNSS TIME                      
/* G:C1WC2W R:C1PC2P E:C1XC5X C:C2IC6I J:C1CC2S             
/* PCV:IGS20_2290 OL/AL:FES2004  NONE     YN ORB:CoN CLK:CoN
*  2024 02 20  4 15  0.00000000
PC06 -18542.457241  33696.405205  16988.262084    121.734504
PC07  -4075.540751  37169.583766  19749.711117   -830.126652
PC08  -7526.115260  19018.147424 -36870.293784     24.580057
PC09 -11220.489632  32337.255086  24641.076924   -514.258346
PC10   2117.252038  39930.594223  14531.060052     77.780223
PC11  17196.181498   -730.964561 -21895.461484    419.811539
PC12   5718.548423  17874.730517 -20610.939846    765.737095
PC13   1913.767712  22377.033485 -35477.665009    418.876357
PC14  19829.579871   9658.119451  17148.324361    230.011475
PC16 -20541.049470  33467.910905  15145.407574   -350.179207
PC19 -17279.516442    250.083747 -21877.176531   -925.231606
PC20 -19347.044893 -16683.532990 -11177.326239   -180.090266
PC21   9819.911502  25082.762574  -7325.539423   -961.855111
PC22  -5169.988531  18069.955220 -20634.534459   -103.236364
PC23  16877.300784 -13438.145145 -17703.034190   -780.012874
PC24  22296.859057   9259.451991  13951.987292    900.828386
PC25  27444.373180  -3924.900870  -3103.986235    330.472930
PC26   4846.604320  15880.794080  22404.020379   -251.710670
PC27    759.461324 -23499.166779  15024.079742    273.703826
PC28  13102.712757 -24640.041752    265.033258    208.307591
PC29 -18925.211487  10783.140809  17436.775372    244.173065
PC30 -12812.254259 -10028.602198  22666.436494    -27.402884
PC32  -9903.731989 -24996.045746   7464.626316   -570.318298
PC33  17373.209571   -250.191107  21849.080721   -950.194724
PC34  13765.066032   8409.530877 -22782.374183    373.201053
PC35 -12220.761687  25062.669155   -159.833375    429.506184
PC36 -27628.839745   2972.658083   2645.560955     -8.665592
PC37  -4037.058075 -16051.174147 -22467.834468   -937.548215
PC38 -16452.887008  18513.282280 -34088.120781    137.923509
PC39 -23828.325314  33709.581410   8020.203688     -7.211694
PC40  -8126.056338  34132.734378  23569.278351    -57.275477
PC41   5850.316573 -17460.224802  21021.251039   -893.360827
PC42  19123.603736  17854.587461   9798.434485   -452.843645
PC43  19006.259808  -9810.225988 -17947.410630     61.128068
PC44    145.941562  23605.288195 -14869.883553    389.848364
PC45 -16752.737312  13364.408805  17876.842659    -71.208571
PC46 -22941.551005  -8745.549985 -13315.363706   -125.281454
PE02  25550.585205  14880.143691  -1149.128732    104.855066
PE03  14887.497755  13482.350456  21745.374925    -95.008221
PE04 -16224.231430   9371.989248 -22906.366923   -331.433889
PE05   4886.827133  28101.634232   7917.285283   4721.725815
PE07   8299.064608 -26191.141487  11011.690874   -104.709764
PE08  16223.326273  -8571.619183  23227.271365   -226.666314
PE09  -8280.503054  26146.620391 -11145.280356   -342.455692
PE10 -24211.784254  16464.874293  -4336.678225   -603.311404
PE11 -17064.708426  19655.739982 -14078.538843   3235.827343
PE12 -26991.564689  11066.206982   4942.242443   -914.020461
PE13  17651.733575 -19545.066315  13534.948173    -20.243188
PE14  17541.602084  14536.450550 -21799.879152     44.446978
PE15  27029.758594 -10767.174823  -5475.445119    -86.806384
PE18 -16557.326214   2527.669422  19284.254178    346.920506
PE19 -13921.912177 -15806.679766 -20788.990001   -580.931019
PE21 -13380.859393 -21101.305205 -15883.885823   -579.929370
PE24  -7655.402671  15070.727018  24275.030874   -608.064546
PE25  13012.360213  21101.072318  16163.280061      1.122743
PE26  -2638.823736 -16630.465242  24353.823428    373.929255
PE27   7158.414096 -15308.696532 -24308.882195   -279.169320
PE30  23378.989594   -349.516379 -18159.793525    -15.319767
PE31 -23257.672026    546.607035  18303.966717    -16.410561
PE33 -20027.956314  -4635.917582  21303.346620      7.863285
PE34  20437.562404   4165.169313 -21002.304449    -95.625300
PE36   1896.259421  16751.658385 -24320.470021   -188.407317
PG01  -1884.410751  16592.641792 -20911.678143    170.280662
PG02  -9841.425571  19150.580460 -14886.711689   -482.694460
PG03   2946.603814  17312.382727 -20107.660773    204.355705
PG04  -1813.494389  26403.602071  -1004.680933    296.048595
PG05  10281.720512 -11302.422962  21560.505194   -162.470587
PG06  23433.456488  -4003.193119 -11887.051510    400.097310
PG07  11080.959437  11563.385644  21727.497205    -66.147062
PG08  -6237.464183  23680.387845   9629.624131   -167.896857
PG09   8152.442398  22656.837246  11065.864750     98.090898
PG10 -24094.624059 -10462.264360  -4761.337495      1.047315
PG11  23823.527609 -11673.636060   -493.251346   -581.723784
PG12   -938.282652 -17634.947068 -20146.538554   -479.710543
PG13  13134.561684 -16909.361437  15367.094256    627.150283
PG14  23122.812190  13201.548721  -1421.058335    330.375041
PG15   3347.039497 -24406.670457   9160.776528    129.536270
PG16 -16525.316571   5268.112732  19908.174122   -358.768893
PG17  12687.020632  11782.165047 -19673.222272    716.418019
PG18 -11614.131221 -10343.020415  21569.191683   -559.417474
PG19  14981.106280   1956.828920 -22032.628357    443.131900
PG20  21057.392853  -4039.948406  15633.479742    386.838060
PG21 -13987.284179  18899.333548 -10840.546702    134.289211
PG22  23068.589420   8952.410685  -8818.117439     28.345755
PG23 -19786.240438 -16379.173422   7160.026990    159.966881
PG24  10576.997137 -20012.735401 -13967.407640   -434.576063
PG25 -12490.036282 -18897.521029 -14422.226905    489.114259
PG26 -23518.652132  -1145.530865  12485.613130    188.325035
PG27 -12735.977591  13814.380996  18318.322749     -5.559587
PG28 -22391.422216   2151.511712 -14137.228113   -137.043228
PG29  -4807.569429 -24064.544640   9978.724925   -606.615428
PG30  19988.835050   3460.304545  17408.573663   -430.260955
PG31 -24706.214130   8765.630451  -5658.238955   -227.822041
PG32 -14437.833241  -7950.026031 -20668.884409   -612.540421
PJ02 -27555.355634  20876.842106  29246.552817     -2.145953
PJ03 -34879.722813  23724.816415   3020.673218     -0.229127
PR01   3619.799562  22418.435645 -11625.569709     77.650931
PR02  11433.236600  22007.307393   5870.988199    -22.505149
PR03  13498.622803   8748.896974  19826.994422     94.849038
PR04   7903.713547  -8686.375772  22679.220017    224.196174
PR05  -1698.229447 -21688.620930  13355.261806    127.186581
PR07 -13364.300156  -8044.611549 -20154.498609     76.208909
PR08  -7802.259453   8981.028263 -22495.145908    -74.475300
PR09 -16019.223583 -10278.464972 -16925.687418    170.976839
PR11 -21032.149506   3873.429047  13896.547705     33.753368
PR12  -3012.786666  10713.932421  22969.536528     36.942836
PR13  13796.650662  10759.056817  18538.826362    -44.533352
PR14  25149.470039   4053.426267   1494.447791     26.085879
PR15  20120.001964  -4476.174671 -15017.892845     82.043119
PR16   3273.913175 -10520.719103 -23004.576668     23.416021
PR17  14819.492505  -3599.620139 -20426.658832     62.705030
PR18  17965.168734 -16347.276852  -7866.646866    128.285822
PR19  13510.379920 -20409.977026   7190.521925   -266.467660
PR20  -2018.417401 -12634.945121  22086.654265   -108.547401
PR21 -14931.503310   3784.295213  20340.081359    -78.377271
PR22 -18392.805645  16291.341214   6848.716099    108.971813
PR24   3359.941607  12372.263839 -22034.624235    -44.634388
PR26  -8215.197836   8123.899659 -22719.295911   -197.496854
EOF
